[{"OBJECT_NAME":"PRAETORIAN SDA_614","OBJECT_ID":"2025-203N","EPOCH":"2026-03-09T14:45:09.374112","MEAN_MOTION":13.84765738,"ECCENTRICITY":0.0008407,"INCLINATION":81.2981,"RA_OF_ASC_NODE":102.9205,"ARG_OF_PERICENTER":101.1644,"MEAN_ANOMALY":259.0459,"EPHEMERIS_TYPE":0,"CLASSIFICATION_TYPE":"U","NORAD_CAT_ID":65577,"ELEMENT_SET_NO":999,"REV_AT_EPOCH":2493,"BSTAR":5.1996e-5,"MEAN_MOTION_DOT":7.1e-7,"MEAN_MOTION_DDOT":0},{"OBJECT_NAME":"SL-14 R\/B","OBJECT_ID":"1986-101B","EPOCH":"2026-03-09T21:53:46.398912","MEAN_MOTION":13.83390568,"ECCENTRICITY":0.00162219,"INCLINATION":82.5347,"RA_OF_ASC_NODE":9.1517,"ARG_OF_PERICENTER":115.6007,"MEAN_ANOMALY":308.2942,"EPHEMERIS_TYPE":0,"CLASSIFICATION_TYPE":"U","NORAD_CAT_ID":17242,"ELEMENT_SET_NO":999,"REV_AT_EPOCH":98017,"BSTAR":2.9958089e-5,"MEAN_MOTION_DOT":4.8e-7,"MEAN_MOTION_DDOT":0}]
